GPS BIIA-10 (PRN 32)    
1 20959U 90103A   15269.04530958 -.00000012  00000-0  00000+0 0  9998
2 20959  54.2520 190.1599 0113066   6.3332 353.8164  2.00562097181868
GPS BIIA-23 (PRN 04)    
1 22877U 93068A   15269.45673109  .00000048  00000-0  00000+0 0  9991
2 22877  53.8947 124.4699 0116901  62.6647 290.7571  2.00565876160599
GPS BIIA-24 (PRN 10)    
1 23027U 94016A   15269.32112950 -.00000010  00000-0  00000+0 0  9991
2 23027  54.4487  60.9596 0100853   7.1892 348.1763  2.00566855157885
GPS BIIR-2  (PRN 13)    
1 24876U 97035A   15269.11865657  .00000015  00000-0  00000+0 0  9998
2 24876  55.7631 251.9503 0044833 120.2510  67.7218  2.00562286133193
GPS BIIR-3  (PRN 11)    
1 25933U 99055A   15269.46949601  .00000039  00000-0  00000+0 0  9993
2 25933  51.2373 105.3079 0160236  83.5295 278.3783  2.00568266117013
GPS BIIR-4  (PRN 20)    
1 26360U 00025A   15269.43785088 -.00000007  00000-0  00000+0 0  9997
2 26360  53.0688 181.1543 0047003  69.5227  15.1571  2.00566007112704
GPS BIIR-5  (PRN 28)    
1 26407U 00040A   15269.44381009 -.00000071  00000-0  00000+0 0  9993
2 26407  56.6839   9.6887 0199858 265.0841 102.7131  2.00561013111389
GPS BIIR-6  (PRN 14)    
1 26605U 00071A   15269.25736054  .00000011  00000-0  00000+0 0  9993
2 26605  55.3326 249.9152 0086765 248.5059 279.1881  2.00565181108971
GPS BIIR-7  (PRN 18)    
1 26690U 01004A   15269.54360140 -.00000008  00000-0  00000+0 0  9992
2 26690  52.9994 184.1384 0165788 249.3778 216.6594  2.00567512107387
GPS BIIR-8  (PRN 16)    
1 27663U 03005A   15269.27710764 -.00000070  00000-0  00000+0 0  9996
2 27663  56.7613   9.3957 0080162  16.8632 353.5989  2.00569326 92747
GPS BIIR-9  (PRN 21)    
1 27704U 03010A   15269.24067076  .00000047  00000-0  00000+0 0  9999
2 27704  53.5523 124.3993 0227623 252.6662  53.4906  2.00553830 91549
GPS BIIR-10 (PRN 22)    
1 28129U 03058A   15269.21301227 -.00000010  00000-0  00000+0 0  9990
2 28129  52.8750 184.2064 0082094 243.7572 309.7820  2.00561982 86241
GPS BIIR-11 (PRN 19)    
1 28190U 04009A   15269.41991616  .00000011  00000-0  00000+0 0  9994
2 28190  55.6275  70.9272 0112369  36.3879 319.6106  2.00392298 84426
GPS BIIR-12 (PRN 23)    
1 28361U 04023A   15269.45562346  .00000004  00000-0  00000+0 0  9990
2 28361  54.2951 245.6631 0105230 210.5015 356.9411  2.00548934 82509
GPS BIIR-13 (PRN 02)    
1 28474U 04045A   15268.50152568  .00000046  00000-0  00000-0 0  9992
2 28474  53.9468 123.6429 0149667 232.6782   4.1474  2.00567803 79852
GPS BIIRM-1 (PRN 17)    
1 28874U 05038A   15269.06841200  .00000009  00000-0  00000+0 0  9997
2 28874  55.7956  68.1190 0106285 245.4297 144.5677  2.00575366 73264
GPS BIIRM-2 (PRN 31)    
1 29486U 06042A   15269.08864984 -.00000007  00000-0  00000+0 0  9998
2 29486  55.8027 307.4370 0082577 328.7371 359.7438  2.00572537 65979
GPS BIIRM-3 (PRN 12)    
1 29601U 06052A   15269.10632894 -.00000070  00000-0  00000+0 0  9994
2 29601  56.7305   8.3300 0053602  35.1844 346.0325  2.00572178 64893
GPS BIIRM-4 (PRN 15)    
1 32260U 07047A   15269.18494997  .00000002  00000-0  00000+0 0  9996
2 32260  53.4258 242.5767 0073939  21.6921 189.7857  2.00557605 58274
GPS BIIRM-5 (PRN 29)    
1 32384U 07062A   15269.13956852  .00000010  00000-0  00000+0 0  9997
2 32384  55.8462  68.6592 0009973 321.3935 349.4251  2.00561661 57009
GPS BIIRM-6 (PRN 07)    
1 32711U 08012A   15269.30358917 -.00000008  00000-0  00000+0 0  9992
2 32711  55.5235 306.9540 0090373 206.5076 153.0968  2.00560984 55215
GPS BIIRM-8 (PRN 05)    
1 35752U 09043A   15268.57723749 -.00000012  00000-0  00000-0 0  9998
2 35752  54.2259 185.0825 0043111  21.4940 203.0615  2.00566073 44789
GPS BIIF-1  (PRN 25)    
1 36585U 10022A   15268.57015994 -.00000071  00000-0  00000+0 0  9992
2 36585  56.0667   5.5990 0044830  40.6059 281.8786  2.00569735 39021
GPS BIIF-2  (PRN 01)    
1 37753U 11036A   15269.50839363  .00000051  00000-0  00000+0 0  9991
2 37753  55.1690 125.9064 0046142  24.7932 341.5786  2.00565009 30716
GPS BIIF-3  (PRN 24)    
1 38833U 12053A   15268.99065042 -.00000006  00000-0  00000+0 0  9999
2 38833  54.5589 304.5054 0033824  13.4913 346.6672  2.00565483 21780
GPS BIIF-4  (PRN 27)    
1 39166U 13023A   15269.34471794  .00000001  00000-0  10000-3 0  9991
2 39166  55.5042  65.3298 0025818  14.0462 346.0439  2.00560688 17318
GPS BIIF-5  (PRN 30)    
1 39533U 14008A   15269.34542518 -.00000014  00000-0  00000+0 0  9996
2 39533  54.7084 309.6805 0017260 186.9281 173.1181  2.00561224 11685
GPS BIIF-6  (PRN 06)    
1 39741U 14026A   15269.12928822  .00000051  00000-0  00000+0 0  9999
2 39741  55.1607 125.4357 0002341 229.4318 130.6452  2.00578995  9966
GPS BIIF-7  (PRN 09)    
1 40105U 14045A   15269.21607097  .00000007  00000-0  00000+0 0  9995
2 40105  54.8093 245.2405 0003552 193.2034 166.7722  2.00556010  8413
GPS BIIF-8  (PRN 03)    
1 40294U 14068A   15269.08576717 -.00000009  00000-0  00000+0 0  9991
2 40294  54.9610 185.5548 0007478 225.6828 134.2787  2.00571253  6633
GPS BIIF-9  (PRN 26)    
1 40534U 15013A   15269.22411217 -.00000073  00000-0  00000+0 0  9999
2 40534  55.0406   5.3040 0001259 322.2203  37.7917  2.00568795  3695
GPS BIIF-10  (PRN 08)   
1 40730U 15033A   15268.88935377  .00000003  00000-0  00000+0 0  9990
2 40730  55.0412  65.3058 0015914 258.7905 101.0510  2.00575741  1444
